NORAD_CAT_ID,OBJECT_NAME,OBJECT_TYPE,EPOCH,MEAN_MOTION,ECCENTRICITY,INCLINATION,RA_OF_ASC_NODE,ARG_OF_PERICENTER,MEAN_ANOMALY,BSTAR,MEAN_MOTION_DOT,MEAN_MOTION_DDOT,TLE_LINE0,TLE_LINE1,TLE_LINE2,SEMIMAJOR_AXIS,PERIOD,APOGEE,PERIGEE,DECAYED
52848.0,STARLINK-4202,PAYLOAD,2022-10-14 22:00:00,15.08813308,0.0001971,53.2182,208.657,34.8884,257.8298,0.0045458,0.00072753,0.0,0 STARLINK-4202,1 52848U 22062U   22287.91667824  .00072753  00000-0  45458-2 0  9995,2 52848  53.2182 208.6570 0001971  34.8884 257.8298 15.08813308  1303,6917.962,95.439,541.191,538.4630000000002,0.0
52848.0,STARLINK-4202,PAYLOAD,2022-10-15 06:00:00,15.08834976,0.0001946,53.2173,207.1544,33.2594,271.0725,0.00027197,4.042e-05,0.0,0 STARLINK-4202,1 52848U 22062U   22288.25001157  .00004042  00000-0  27197-3 0  9991,2 52848  53.2173 207.1544 0001946  33.2594 271.0725 15.08834976 18867,6917.896,95.438,541.107,538.415,0.0
52848.0,STARLINK-4202,PAYLOAD,2022-10-15 14:00:01,15.08832041,0.000208,53.2177,205.6716,36.958,279.0366,0.00085755,0.00013383,0.0,0 STARLINK-4202,1 52848U 22062U   22288.58334491  .00013383  00000-0  85755-3 0  9999,2 52848  53.2177 205.6716 0002080  36.9580 279.0366 15.08832041  1301,6917.905,95.438,541.2090000000002,538.331,0.0
52848.0,STARLINK-4202,PAYLOAD,2022-10-15 22:00:01,15.08856675,0.0002073999999999,53.2178,204.176,34.9627,292.6758,-0.004296,-0.00068047,0.0,0 STARLINK-4202,1 52848U 22062U   22288.91668981 -.00068047  00000-0 -42960-2 0  9999,2 52848  53.2178 204.1760 0002074  34.9627 292.6758 15.08856675  1303,6917.829000000002,95.436,541.129,538.26,0.0
52848.0,STARLINK-4202,PAYLOAD,2022-10-16 06:00:00,15.08784561,0.0002177,53.2174,202.6807,28.4656,310.6974,0.0013787,0.00021689,0.0,0 STARLINK-4202,1 52848U 22062U   22289.25001157  .00021689  00000-0  13787-2 0  9997,2 52848  53.2174 202.6807 0002177  28.4656 310.6974 15.08784561 19010,6918.05,95.441,541.4209999999998,538.409,0.0
52848.0,STARLINK-4202,PAYLOAD,2022-10-16 14:00:01,15.08774341,0.0001936,53.2175,201.1828,31.4416,319.2688,0.0035749,0.00056964,0.0,0 STARLINK-4202,1 52848U 22062U   22289.58334491  .00056964  00000-0  35749-2 0  9999,2 52848  53.2175 201.1828 0001936  31.4416 319.2688 15.08774341  1303,6918.081,95.442,541.285,538.607,0.0
52848.0,STARLINK-4202,PAYLOAD,2022-10-16 22:00:00,15.08828477,0.0002016,53.2178,199.6857,32.2806,329.9673,-0.00060707,-9.934e-05,0.0,0 STARLINK-4202,1 52848U 22062U   22289.91667824 -.00009934  00000-0 -60707-3 0  9995,2 52848  53.2178 199.6857 0002016  32.2806 329.9673 15.08828477  1303,6917.916,95.438,541.175,538.386,0.0
52848.0,STARLINK-4202,PAYLOAD,2022-10-17 14:00:01,15.088242800000002,0.0001905,53.2172,196.6917,33.8585,351.5689,0.0040361,0.00064507,0.0,0 STARLINK-4202,1 52848U 22062U   22290.58334491  .00064507  00000-0  40361-2 0  9999,2 52848  53.2172 196.6917 0001905  33.8585 351.5689 15.08824280 19213,6917.928000000001,95.439,541.111,538.476,0.0
52848.0,STARLINK-4202,PAYLOAD,2022-10-17 22:00:00,15.08892283,0.0002017,53.2176,195.1965,33.1802,3.845,-0.003974,-0.00063073,0.0,0 STARLINK-4202,1 52848U 22062U   22290.91667824 -.00063073  00000-0 -39740-2 0  9993,2 52848  53.2176 195.1965 0002017  33.1802   3.8450 15.08892283  1306,6917.721,95.434,540.981,538.19,0.0
52848.0,STARLINK-4202,PAYLOAD,2022-10-18 14:00:01,15.088027300000002,0.0001985,53.2168,192.205,36.2749,23.9546,0.003745,0.00059759,0.0,0 STARLINK-4202,1 52848U 22062U   22291.58334491  .00059759  00000-0  37450-2 0  9998,2 52848  53.2168 192.2050 0001985  36.2749  23.9546 15.08802730  1304,6917.994000000002,95.44,541.2330000000002,538.486,0.0
52848.0,STARLINK-4202,PAYLOAD,2022-10-18 22:00:00,15.08849655,0.0002153,53.2169,190.71,36.3815,35.4154,-0.0011433,-0.00018443,0.0,0 STARLINK-4202,1 52848U 22062U   22291.91667824 -.00018443  00000-0 -11433-2 0  9994,2 52848  53.2169 190.7100 0002153  36.3815  35.4154 15.08849655  1307,6917.851,95.437,541.205,538.226,0.0
52848.0,STARLINK-4202,PAYLOAD,2022-10-19 14:00:01,15.08813627,0.000199,53.2167,187.716,36.0102,59.0054,0.0029590999999999,0.00047087,0.0,0 STARLINK-4202,1 52848U 22062U   22292.58334491  .00047087  00000-0  29591-2 0  9997,2 52848  53.2167 187.7160 0001990  36.0102  59.0054 15.08813627  1302,6917.9609999999975,95.439,541.203,538.4490000000002,0.0
52848.0,STARLINK-4202,PAYLOAD,2022-10-19 22:00:00,15.088366,0.0002123,53.217,186.2126,38.4273,68.1662,0.0019567,0.00030988,0.0,0 STARLINK-4202,1 52848U 22062U   22292.91667824  .00030988  00000-0  19567-2 0  9997,2 52848  53.2170 186.2126 0002123  38.4273  68.1662 15.08836600  1308,6917.891,95.438,541.224,538.2869999999998,0.0
52848.0,STARLINK-4202,PAYLOAD,2022-10-20 08:00:01,15.08865573,0.0002174,53.2168,184.3503,32.6436,178.4542,-0.0032264,-0.00051309,0.0,0 STARLINK-4202,1 52848U 22062U   22293.33334491 -.00051309  00000-0 -32264-2 0  9996,2 52848  53.2168 184.3503 0002174  32.6436 178.4542 15.08865573 19634,6917.802,95.436,541.1709999999998,538.163,0.0
52848.0,STARLINK-4202,PAYLOAD,2022-10-20 14:00:01,15.0881511,0.0002018,53.2168,183.2264,35.1071,94.7037,0.0033734,0.00053773,0.0,0 STARLINK-4202,1 52848U 22062U   22293.58334491  .00053773  00000-0  33734-2 0  9991,2 52848  53.2168 183.2264 0002018  35.1071  94.7037 15.08815110  1302,6917.956,95.439,541.2180000000002,538.425,0.0
52848.0,STARLINK-4202,PAYLOAD,2022-10-20 22:00:00,15.08871412,0.0002194,53.2172,181.7298,34.3855,107.0105,-0.0038289,-0.00060766,0.0,0 STARLINK-4202,1 52848U 22062U   22293.91667824 -.00060766  00000-0 -38289-2 0  9999,2 52848  53.2172 181.7298 0002194  34.3855 107.0105 15.08871412 19729,6917.784000000002,95.436,541.1669999999998,538.132,0.0
52848.0,STARLINK-4202,PAYLOAD,2022-10-21 14:00:01,15.08821966,0.0002051,53.2172,178.7351,34.7296,129.8646,0.0032832,0.00052327,0.0,0 STARLINK-4202,1 52848U 22062U   22294.58334491  .00052327  00000-0  32832-2 0  9994,2 52848  53.2172 178.7351 0002051  34.7296 129.8646 15.08821966 19822,6917.936,95.439,541.219,538.382,0.0
52848.0,STARLINK-4202,PAYLOAD,2022-10-21 22:00:00,15.08862699,0.0002251,53.2175,177.2431,32.613,143.5705,-0.0035663,-0.00056637,0.0,0 STARLINK-4202,1 52848U 22062U   22294.91667824 -.00056637  00000-0 -35663-2 0  9995,2 52848  53.2175 177.2431 0002251  32.6130 143.5705 15.08862699  1305,6917.811,95.436,541.2330000000002,538.119,0.0
52848.0,STARLINK-4202,PAYLOAD,2022-10-22 14:00:01,15.0882658,0.0002108,53.2178,174.24900000000005,33.8791,165.4975,0.0024066,0.00038207,0.0,0 STARLINK-4202,1 52848U 22062U   22295.58334491  .00038207  00000-0  24066-2 0  9996,2 52848  53.2178 174.2490 0002108  33.8791 165.4975 15.08826580 19970,6917.920999999999,95.438,541.245,538.328,0.0
52848.0,STARLINK-4202,PAYLOAD,2022-10-22 22:00:00,15.08855849,0.0002262,53.2178,172.7543,31.3807,179.6,-0.002149,-0.00034343,0.0,0 STARLINK-4202,1 52848U 22062U   22295.91667824 -.00034343  00000-0 -21490-2 0  9999,2 52848  53.2178 172.7543 0002262  31.3807 179.6000 15.08855849  1308,6917.831999999999,95.437,541.262,538.132,0.0
52848.0,STARLINK-4202,PAYLOAD,2022-10-23 08:00:01,15.08866174,0.0002207,53.2178,170.8831,30.2515,285.2932,-0.0010098,-0.00016335,0.0,0 STARLINK-4202,1 52848U 22062U   22296.33335648 -.00016335  00000-0 -10098-2 0  9995,2 52848  53.2178 170.8831 0002207  30.2515 285.2932 15.08866174 20087,6917.8,95.436,541.192,538.139,0.0
52848.0,STARLINK-4202,PAYLOAD,2022-10-23 14:00:01,15.08839923,0.0002085999999999,53.2178,169.76,33.5564,200.6365,0.0026503,0.00042144,0.0,0 STARLINK-4202,1 52848U 22062U   22296.58334491  .00042144  00000-0  26503-2 0  9990,2 52848  53.2178 169.7600 0002086  33.5564 200.6365 15.08839923  1300,6917.880999999999,95.438,541.189,538.303,0.0
52848.0,STARLINK-4202,PAYLOAD,2022-10-23 22:00:00,15.08871275,0.0002266,53.2177,168.2653,31.2967,214.5091,-0.0043253,-0.00068532,0.0,0 STARLINK-4202,1 52848U 22062U   22296.91667824 -.00068532  00000-0 -43253-2 0  9998,2 52848  53.2177 168.2653 0002266  31.2967 214.5091 15.08871275  1309,6917.785,95.436,541.217,538.082,0.0
52848.0,STARLINK-4202,PAYLOAD,2022-10-24 14:00:01,15.08763224,0.000202,53.2175,165.271,31.7136,237.2675,0.0035946999999999,0.00057267,0.0,0 STARLINK-4202,1 52848U 22062U   22297.58334491  .00057267  00000-0  35947-2 0  9995,2 52848  53.2175 165.2710 0002020  31.7136 237.2675 15.08763224  1303,6918.115,95.442,541.378,538.5830000000002,0.0
52848.0,STARLINK-4202,PAYLOAD,2022-10-24 16:00:00,15.08777808,0.0002017,53.2176,164.8974,32.3666,329.4895,0.0030616999999999,0.00048693,0.0,0 STARLINK-4202,1 52848U 22062U   22297.66667824  .00048693  00000-0  30617-2 0  9995,2 52848  53.2176 164.8974 0002017  32.3666 329.4895 15.08777808 20281,6918.07,95.441,541.331,538.54,0.0
52848.0,STARLINK-4202,PAYLOAD,2022-10-24 22:00:00,15.08804111,0.0002204,53.2172,163.7766,29.0202,251.486,0.0010847,0.0001699999999999,0.0,0 STARLINK-4202,1 52848U 22062U   22297.91667824  .00017000  00000-0  10847-2 0  9994,2 52848  53.2172 163.7766 0002204  29.0202 251.4860 15.08804111  1307,6917.99,95.44,541.38,538.33,0.0
52848.0,STARLINK-4202,PAYLOAD,2022-10-25 06:00:00,15.08838365,0.0002165999999999,53.2168,162.2798,27.8289,264.2313,-0.0018870999999999,-0.00030196,0.0,0 STARLINK-4202,1 52848U 22062U   22298.25001157 -.00030196  00000-0 -18871-2 0  9991,2 52848  53.2168 162.2798 0002166  27.8289 264.2313 15.08838365 20370,6917.885,95.438,541.249,538.252,0.0
52848.0,STARLINK-4202,PAYLOAD,2022-10-25 14:00:01,15.08813573,0.0002002,53.2167,160.7823,32.697,270.9444,0.0022799,0.00036157,0.0,0 STARLINK-4202,1 52848U 22062U   22298.58334491  .00036157  00000-0  22799-2 0  9992,2 52848  53.2167 160.7823 0002002  32.6970 270.9444 15.08813573  1306,6917.9609999999975,95.439,541.211,538.441,0.0
52848.0,STARLINK-4202,PAYLOAD,2022-10-25 22:00:01,15.08830055,0.0002234,53.2164,159.2877,31.0018,284.2832,-0.00014333,-2.568e-05,0.0,0 STARLINK-4202,1 52848U 22062U   22298.91668981 -.00002568  00000-0 -14333-3 0  9990,2 52848  53.2164 159.2877 0002234  31.0018 284.2832 15.08830055 20470,6917.911,95.438,541.321,538.23,0.0
